CUPID                   
1 49264U 21088E   26068.66993977  .00009454  00000+0  38662-3 0  9991
2 49264  97.3985 131.0756 0013746  59.9938 300.2662 15.24473777245013
STARLINK-30329          
1 57635U 23122D   26068.42338009  .00001376  00000+0  60951-4 0  9998
2 57635  43.0009  94.2279 0001445 260.6424  99.4264 15.26746530142162
